OBJECT B                
1 51825U 22019B   25179.90470261  .00013103  00000+0  31769-3 0  9994
2 51825  97.3846 256.7426 0008936 348.3845  11.7194 15.41152255184875
